CTC2_L_00073001-01
1 10000U 24740SG  26075.70041667  .00000000  00000+0  00000-0 0  9998
2 10000  50.0000   0.0000 0000000   0.0000   0.0000 15.28598846    15
CTC2_L_00073001-02
1 10001U 25792IF  26075.70041667  .00000000  00000+0  00000-0 0  9997
2 10001  50.0000   0.0000 0000000   0.0000  90.0000 15.28598846    15
CTC2_L_00073001-03
1 10002U 23512DG  26075.70041667  .00000000  00000+0  00000-0 0  9996
2 10002  50.0000   0.0000 0000000   0.0000 180.0000 15.28598846    16
CTC2_L_00073001-04
1 10003U 22893SE  26075.70041667  .00000000  00000+0  00000-0 0  9998
2 10003  50.0000   0.0000 0000000   0.0000 270.0000 15.28598846    17
CTC2_L_00073002-01
1 10004U 26715FX  26075.70041667  .00000000  00000+0  00000-0 0  9996
2 10004  50.0000  12.0000 0000000   0.0000  12.0000 15.28598846    15
CTC2_L_00073002-02
1 10005U 26932TG  26075.70041667  .00000000  00000+0  00000-0 0  9998
2 10005  50.0000  12.0000 0000000   0.0000 102.0000 15.28598846    16
CTC2_L_00073002-03
1 10006U 24493WW  26075.70041667  .00000000  00000+0  00000-0 0  9999
2 10006  50.0000  12.0000 0000000   0.0000 192.0000 15.28598846    16
CTC2_L_00073002-04
1 10007U 26876RI  26075.70041667  .00000000  00000+0  00000-0 0  9997
2 10007  50.0000  12.0000 0000000   0.0000 282.0000 15.28598846    17
CTC2_L_00073003-01
1 10008U 23266XQ  26075.70041667  .00000000  00000+0  00000-0 0  9998
2 10008  50.0000  24.0000 0000000   0.0000  24.0000 15.28598846    15
CTC2_L_00073003-02
1 10009U 23571MZ  26075.70041667  .00000000  00000+0  00000-0 0  9998
2 10009  50.0000  24.0000 0000000   0.0000 114.0000 15.28598846    16
CTC2_L_00073003-03
1 10010U 24672N   26075.70041667  .00000000  00000+0  00000-0 0  9993
2 10010  50.0000  24.0000 0000000   0.0000 204.0000 15.28598846    18
CTC2_L_00073003-04
1 10011U 22696DA  26075.70041667  .00000000  00000+0  00000-0 0  9998
2 10011  50.0000  24.0000 0000000   0.0000 294.0000 15.28598846    18
CTC2_L_00073004-01
1 10012U 22496WK  26075.70041667  .00000000  00000+0  00000-0 0  9997
2 10012  50.0000  36.0000 0000000   0.0000  36.0000 15.28598846    16
CTC2_L_00073004-02
1 10013U 25173CK  26075.70041667  .00000000  00000+0  00000-0 0  9993
2 10013  50.0000  36.0000 0000000   0.0000 126.0000 15.28598846    17
CTC2_L_00073004-03
1 10014U 24395UH  26075.70041667  .00000000  00000+0  00000-0 0  9999
2 10014  50.0000  36.0000 0000000   0.0000 216.0000 15.28598846    18
CTC2_L_00073004-04
1 10015U 24645GA  26075.70041667  .00000000  00000+0  00000-0 0  9998
2 10015  50.0000  36.0000 0000000   0.0000 306.0000 15.28598846    19
CTC2_L_00073005-01
1 10016U 22381FR  26075.70041667  .00000000  00000+0  00000-0 0  9994
2 10016  50.0000  48.0000 0000000   0.0000  48.0000 15.28598846    16
CTC2_L_00073005-02
1 10017U 23325QH  26075.70041667  .00000000  00000+0  00000-0 0  9994
2 10017  50.0000  48.0000 0000000   0.0000 138.0000 15.28598846    17
CTC2_L_00073005-03
1 10018U 26767ZA  26075.70041667  .00000000  00000+0  00000-0 0  9998
2 10018  50.0000  48.0000 0000000   0.0000 228.0000 15.28598846    18
CTC2_L_00073005-04
1 10019U 26705VM  26075.70041667  .00000000  00000+0  00000-0 0  9991
2 10019  50.0000  48.0000 0000000   0.0000 318.0000 15.28598846    19
CTC2_L_00073006-01
1 10020U 25598PQ  26075.70041667  .00000000  00000+0  00000-0 0  9992
2 10020  50.0000  60.0000 0000000   0.0000  60.0000 15.28598846    19
CTC2_L_00073006-02
1 10021U 26605MA  26075.70041667  .00000000  00000+0  00000-0 0  9993
2 10021  50.0000  60.0000 0000000   0.0000 150.0000 15.28598846    10
CTC2_L_00073006-03
1 10022U 25380IX  26075.70041667  .00000000  00000+0  00000-0 0  9993
2 10022  50.0000  60.0000 0000000   0.0000 240.0000 15.28598846    11
CTC2_L_00073006-04
1 10023U 26494RL  26075.70041667  .00000000  00000+0  00000-0 0  9991
2 10023  50.0000  60.0000 0000000   0.0000 330.0000 15.28598846    12
CTC2_L_00073007-01
1 10024U 22802UX  26075.70041667  .00000000  00000+0  00000-0 0  9991
2 10024  50.0000  72.0000 0000000   0.0000  72.0000 15.28598846    19
CTC2_L_00073007-02
1 10025U 23156DT  26075.70041667  .00000000  00000+0  00000-0 0  9995
2 10025  50.0000  72.0000 0000000   0.0000 162.0000 15.28598846    10
CTC2_L_00073007-03
1 10026U 22268Y   26075.70041667  .00000000  00000+0  00000-0 0  9999
2 10026  50.0000  72.0000 0000000   0.0000 252.0000 15.28598846    11
CTC2_L_00073007-04
1 10027U 23729IB  26075.70041667  .00000000  00000+0  00000-0 0  9993
2 10027  50.0000  72.0000 0000000   0.0000 342.0000 15.28598846    12
CTC2_L_00073008-01
1 10028U 26450BQ  26075.70041667  .00000000  00000+0  00000-0 0  9998
2 10028  50.0000  84.0000 0000000   0.0000  84.0000 15.28598846    19
CTC2_L_00073008-02
1 10029U 26830QB  26075.70041667  .00000000  00000+0  00000-0 0  9991
2 10029  50.0000  84.0000 0000000   0.0000 174.0000 15.28598846    10
CTC2_L_00073008-03
1 10030U 24773YG  26075.70041667  .00000000  00000+0  00000-0 0  9997
2 10030  50.0000  84.0000 0000000   0.0000 264.0000 15.28598846    12
CTC2_L_00073008-04
1 10031U 25931EM  26075.70041667  .00000000  00000+0  00000-0 0  9995
2 10031  50.0000  84.0000 0000000   0.0000 354.0000 15.28598846    13
CTC2_L_00073009-01
1 10032U 25551OT  26075.70041667  .00000000  00000+0  00000-0 0  9994
2 10032  50.0000  96.0000 0000000   0.0000  96.0000 15.28598846    10
CTC2_L_00073009-02
1 10033U 25981ON  26075.70041667  .00000000  00000+0  00000-0 0  9992
2 10033  50.0000  96.0000 0000000   0.0000 186.0000 15.28598846    11
CTC2_L_00073009-03
1 10034U 26196PP  26075.70041667  .00000000  00000+0  00000-0 0  9992
2 10034  50.0000  96.0000 0000000   0.0000 276.0000 15.28598846    12
CTC2_L_00073009-04
1 10035U 26760SL  26075.70041667  .00000000  00000+0  00000-0 0  9990
2 10035  50.0000  96.0000 0000000   0.0000   6.0000 15.28598846    14
CTC2_L_00073010-01
1 10036U 25623VA  26075.70041667  .00000000  00000+0  00000-0 0  9998
2 10036  50.0000 108.0000 0000000   0.0000 108.0000 15.28598846    12
CTC2_L_00073010-02
1 10037U 24382AL  26075.70041667  .00000000  00000+0  00000-0 0  9990
2 10037  50.0000 108.0000 0000000   0.0000 198.0000 15.28598846    12
CTC2_L_00073010-03
1 10038U 23966RY  26075.70041667  .00000000  00000+0  00000-0 0  9998
2 10038  50.0000 108.0000 0000000   0.0000 288.0000 15.28598846    13
CTC2_L_00073010-04
1 10039U 26133YY  26075.70041667  .00000000  00000+0  00000-0 0  9998
2 10039  50.0000 108.0000 0000000   0.0000  18.0000 15.28598846    15
CTC2_L_00073011-01
1 10040U 23717FC  26075.70041667  .00000000  00000+0  00000-0 0  9995
2 10040  50.0000 120.0000 0000000   0.0000 120.0000 15.28598846    15
CTC2_L_00073011-02
1 10041U 24819MY  26075.70041667  .00000000  00000+0  00000-0 0  9990
2 10041  50.0000 120.0000 0000000   0.0000 210.0000 15.28598846    16
CTC2_L_00073011-03
1 10042U 26785QM  26075.70041667  .00000000  00000+0  00000-0 0  9995
2 10042  50.0000 120.0000 0000000   0.0000 300.0000 15.28598846    17
CTC2_L_00073011-04
1 10043U 22603RU  26075.70041667  .00000000  00000+0  00000-0 0  9991
2 10043  50.0000 120.0000 0000000   0.0000  30.0000 15.28598846    18
CTC2_L_00073012-01
1 10044U 22351DB  26075.70041667  .00000000  00000+0  00000-0 0  9992
2 10044  50.0000 132.0000 0000000   0.0000 132.0000 15.28598846    15
CTC2_L_00073012-02
1 10045U 24175YQ  26075.70041667  .00000000  00000+0  00000-0 0  9999
2 10045  50.0000 132.0000 0000000   0.0000 222.0000 15.28598846    16
CTC2_L_00073012-03
1 10046U 25548GL  26075.70041667  .00000000  00000+0  00000-0 0  9995
2 10046  50.0000 132.0000 0000000   0.0000 312.0000 15.28598846    17
CTC2_L_00073012-04
1 10047U 24704YM  26075.70041667  .00000000  00000+0  00000-0 0  9999
2 10047  50.0000 132.0000 0000000   0.0000  42.0000 15.28598846    18
CTC2_L_00073013-01
1 10048U 25380H   26075.70041667  .00000000  00000+0  00000-0 0  9991
2 10048  50.0000 144.0000 0000000   0.0000 144.0000 15.28598846    15
CTC2_L_00073013-02
1 10049U 24761FS  26075.70041667  .00000000  00000+0  00000-0 0  9994
2 10049  50.0000 144.0000 0000000   0.0000 234.0000 15.28598846    16
CTC2_L_00073013-03
1 10050U 26848KJ  26075.70041667  .00000000  00000+0  00000-0 0  9994
2 10050  50.0000 144.0000 0000000   0.0000 324.0000 15.28598846    18
CTC2_L_00073013-04
1 10051U 26653IH  26075.70041667  .00000000  00000+0  00000-0 0  9999
2 10051  50.0000 144.0000 0000000   0.0000  54.0000 15.28598846    19
CTC2_L_00073014-01
1 10052U 22765UZ  26075.70041667  .00000000  00000+0  00000-0 0  9990
2 10052  50.0000 156.0000 0000000   0.0000 156.0000 15.28598846    16
CTC2_L_00073014-02
1 10053U 25506LU  26075.70041667  .00000000  00000+0  00000-0 0  9997
2 10053  50.0000 156.0000 0000000   0.0000 246.0000 15.28598846    17
CTC2_L_00073014-03
1 10054U 22216FJ  26075.70041667  .00000000  00000+0  00000-0 0  9993
2 10054  50.0000 156.0000 0000000   0.0000 336.0000 15.28598846    18
CTC2_L_00073014-04
1 10055U 26968PA  26075.70041667  .00000000  00000+0  00000-0 0  9992
2 10055  50.0000 156.0000 0000000   0.0000  66.0000 15.28598846    19
CTC2_L_00073015-01
1 10056U 22504YI  26075.70041667  .00000000  00000+0  00000-0 0  9995
2 10056  50.0000 168.0000 0000000   0.0000 168.0000 15.28598846    16
CTC2_L_00073015-02
1 10057U 24141BR  26075.70041667  .00000000  00000+0  00000-0 0  9995
2 10057  50.0000 168.0000 0000000   0.0000 258.0000 15.28598846    17
CTC2_L_00073015-03
1 10058U 23903LY  26075.70041667  .00000000  00000+0  00000-0 0  9991
2 10058  50.0000 168.0000 0000000   0.0000 348.0000 15.28598846    18
CTC2_L_00073015-04
1 10059U 23670WD  26075.70041667  .00000000  00000+0  00000-0 0  9993
2 10059  50.0000 168.0000 0000000   0.0000  78.0000 15.28598846    19
CTC2_L_00073016-01
1 10060U 25732ZS  26075.70041667  .00000000  00000+0  00000-0 0  9996
2 10060  50.0000 180.0000 0000000   0.0000 180.0000 15.28598846    19
CTC2_L_00073016-02
1 10061U 23435WK  26075.70041667  .00000000  00000+0  00000-0 0  9995
2 10061  50.0000 180.0000 0000000   0.0000 270.0000 15.28598846    10
